#dP2023  4 27  0  0  0.00000000      96 __u+U ITR00 EXT  IAC
## 2259 345600.00000000   900.00000000 60061 0.0000000000000
+  119   C06C07C08C09C10C11C12C13C14C16C19C20C21C22C23C24C25
+        C26C27C28C29C30C32C33C34C35C36C37C38C39C40C41C42C43
+        C44C45C46E01E02E03E04E05E07E08E09E10E11E12E13E14E15
+        E19E21E24E25E26E27E30E31E33E34E36G01G02G03G04G05G06
+        G07G08G09G10G11G12G13G14G15G16G17G18G19G20G21G22G23
+        G24G25G26G27G28G29G30G31G32J02J03J04R01R02R03R04R05
+        R07R08R09R11R12R13R14R15R16R17R18R19R20R21R22R24R25
++        11 10  7 11  8  8  9 10  8 11  7  8  7  9  8 11  7
++         7  8  7  8  6  8  9  8  8 10  6 10 10  9  9  8  7
++         8 10  7  5  7  8  7  8  6  7  7  6  6  6  6  7  8
++         7  7  7  7  7  7  6  7  6  6  7  7  6  6  7  7  7
++         8  7  6  6 10  7  7  8  7  7  7  7  7  7  6  6  8
++         7  5  7  6  7  7  8  8  8 10  9  8  9  7  8  7  8
++         7  8  9  7 10  9 10  7  6  8  6  9 10  8  8  8  8
%c M  cc GPS ccc cccc cccc cccc cccc ccccc ccccc ccccc ccccc
%c cc cc ccc ccc cccc cccc cccc cccc ccccc ccccc ccccc ccccc
%f  0.0000000  0.000000000  0.00000000000  0.000000000000000
%f  0.0000000  0.000000000  0.00000000000  0.000000000000000
%i    0    0    0    0      0      0      0      0         0
%i    0    0    0    0      0      0      0      0         0
/* IAC                                ULTRA-RAPID PREDICTION
/* S/V CLOCKS ARE ALIGNED TO GNSS TIME                      
/* G:C1WC2W R:C1PC2P E:C1XC5X C:C2IC6I J:C1CC2S             
/* PCV:IGS20_2247 OL/AL:FES2004  NONE     YN ORB:CoN CLK:CoN
*  2023 04 27  9  0  0.00000000
PC06 -11873.544295  23233.646357 -33137.651197   -195.759648
PC07 -15036.290222  39075.794322   4103.966114     66.895403
PC08   1182.157286  32852.732922  26505.767102    497.419668
PC09  -1229.650579  24276.774729 -34022.694363    719.947793
PC10  -8012.914267  39551.231346  11558.060001    -43.600054
PC11   6566.280435  14496.166690  22986.296829    323.168401
PC12 -14324.617921  14597.181675  19015.840130    599.474177
PC13   6337.254800  36188.992924  21074.507948    262.012521
PC14   1728.822193  23586.133282 -14741.958661    179.419300
PC16 -15595.479385  21808.528971 -32380.259194     96.751550
PC19  -8588.597383 -16763.656331  20630.566593   -904.529848
PC20   4250.697055 -26371.666255   8160.218712    602.202734
PC21 -15596.566902  20707.478353  10310.269487   -911.503662
PC22 -17130.060543   2966.348639  21826.317151   -515.788735
PC23  21359.729370   8332.984398  15912.033909   -914.673412
PC24   2814.624341  22421.350635 -16400.391057   -121.916198
PC25  18293.671651  21078.811634    592.333161    114.980060
PC26 -11867.456091  11181.863305 -22661.705928   -112.153697
PC27  21626.738845 -12092.480141 -12846.617472    131.732213
PC28  27668.402674  -1657.338263   3235.835611     97.199866
PC29 -17482.673350 -10384.678656 -19123.687844    112.688551
PC30   3575.999477 -16449.693586 -22263.853199      0.146967
PC32  15438.893539 -20838.380486 -10307.893717   -571.645642
PC33   8653.663393  16760.521740 -20547.959804   -876.183475
PC34  -2133.947450  16388.747711  22472.689196    158.062694
PC35 -27558.429536   2074.717820  -4047.369722    638.413428
PC36 -17402.371843 -21811.816855    127.013281   -475.953692
PC37  13070.832626  -9730.569324  22665.980878   -786.614774
PC38  -6275.394554  28444.270961  30570.758501     74.533236
PC39 -20766.143002  21257.043283 -29951.620611     -2.712518
PC40 -21560.329600  36004.136417   2411.509450    -21.532598
PC41  16999.058217  -2349.991095 -21950.642596   -903.732028
PC42  -5184.261058  26529.337334  -6820.878622   -717.760003
PC43  16693.520581  10949.043739  19475.055345     18.680200
PC44 -21349.548123  12853.793348  12577.310455     88.811001
PC45 -21203.767078  -7954.595006 -16293.247382    -90.316521
PC46  -4249.671721 -22886.392088  15363.016487    -49.936250
PE01   7311.299697 -24545.268914  14834.546396      8.600879
PE02  -7026.117072  24856.730249 -14475.925348     34.781493
PE03 -16666.129561  22016.111638 -10641.151307   -673.304639
PE04  -1692.262923 -18823.709827  22795.140031   -109.662790
PE05 -25672.457563  12315.785299   8091.392229    -72.856506
PE07  19376.157449   4623.568900 -21885.931845    -40.745464
PE08   1377.053236  18829.839002 -22786.824524    -73.989923
PE09 -19167.202683  -4673.627073  22070.783495      5.132333
PE10 -21078.568614 -17050.799141 -11894.305586   -529.512559
PE11 -26795.521252 -12486.333703  -1736.536762   1742.778230
PE12 -12551.937843 -18743.092006 -19184.962704   -515.217561
PE13  26534.859088  12855.967555   2524.574783    -18.879422
PE14 -16491.170407  15980.164786   6126.349215    208.869703
PE15  12229.882711  18660.388495  19447.351596    -17.556758
PE19  18744.005956 -21346.735356   8330.498231  -2668.205413
PE21  15613.386835  -7633.127147  23955.806189   -525.781190
PE24 -15519.845720 -15744.272260 -19690.683275    -67.125291
PE25 -15703.008926   7255.554511 -24019.132107   -604.049655
PE26  24756.590316  -1044.665215 -16187.560328     87.374246
PE27  15724.921916  14973.033960  20118.993240    -35.292665
PE30   6106.075124  28704.850294   3901.007700   -126.463218
PE31  -6572.072769 -28511.121703  -4472.113798   -522.410667
PE33   9154.061554 -13409.623643 -24748.521135   -445.366517
PE34  -8983.182709  13497.510354  24756.058047    -42.394724
PE36 -25128.767977    390.925959  15649.821949    -47.547887
PG01 -21683.764377 -14805.111600  -5452.229942    189.832730
PG02  21170.054620  -3098.073693 -15148.705342   -601.982755
PG03 -12490.514577 -16494.989472  16595.642876   -319.034251
PG04 -16621.362845  -5857.022732  19917.296387     26.990779
PG05   5281.406217  25813.916016  -2950.770439   -124.989303
PG06 -12726.882320   9438.806908  21396.420815    587.825615
PG07 -24831.615931  -5646.865560  -7925.158386    191.919751
PG08  -5839.607929 -14445.058112 -21540.455274   -119.721141
PG09 -22374.303693   4239.598953  13633.711891   -171.299607
PG10  11498.520637 -14489.307440 -18761.281667    -34.557769
PG11   2224.835052  17108.178897  20213.051253   -176.537019
PG12  10336.546045  19389.406771  14701.728874   -368.982829
PG13  -3111.072735  17075.661602 -20220.823553    511.745222
PG14 -13606.333756  11374.139582 -19719.501947     38.004683
PG15   8270.403678  14010.754698 -21427.180228     34.345175
PG16    -91.091376 -26307.876724   -492.790030   -505.725210
PG17 -22748.695417  13818.462864    227.943954    712.459147
PG18  23656.827329   2787.004867 -11905.794568   -242.037624
PG19 -18705.314189  16559.508772   8342.215224    309.188297
PG20   1007.499231  25624.780330   7335.996566    436.737598
PG21 -17494.979003 -15837.197005 -12429.549869    154.075008
PG22  15485.945477 -18273.794177  11744.692247    471.447125
PG23  14871.246799  -1405.946824 -21956.551569     19.773350
PG24  19917.580870  15180.746866  -9805.564475   -167.435290
PG25  15030.182060   8264.263844  20033.970411    438.669917
PG26   5837.372385 -22587.099520  12257.733043    241.420518
PG27   5913.525875 -18928.178970 -17710.502008     49.840160
PG28  14392.423025  -9192.962651  20315.363640     71.101030
PG29  21044.571386    433.370404  16196.255422   -597.206928
PG30 -19877.419156   4317.526090 -17103.904012   -520.295659
PG31   6113.768065 -14001.526556  21547.765329   -214.885734
PG32  20728.517295 -16320.557813   2102.130608   -462.190269
PJ02 -20048.762654  29685.998736 -17753.038180     -1.670245
PJ03 -29866.633615  23388.063144  23518.901427      3.020447
PJ04 -30678.106214  27527.939925  15004.604103     94.288514
PR01   1074.629035  16555.691218 -19362.170899     27.448700
PR02  12280.713464    129.204697 -22297.249561    -22.917400
PR03  16234.409008 -15677.832383 -11783.088103     76.777664
PR04  11269.020613 -22333.029952   5004.652528    184.932949
PR05    173.135633 -16923.232175  19094.492634    111.620856
PR07 -16266.023658  16222.605632  11181.412770     54.690483
PR08 -11099.981264  22410.915657  -5027.445420    -70.544672
PR09 -15989.316628 -12366.911374 -15592.815328    116.990600
PR11    386.184094  18129.401507 -17922.916669    -44.085849
PR12  11856.395431  22575.867201   -894.421818     26.776470
PR13  15757.258216  14090.503787  14261.974818    -34.432407
PR14  10263.661994  -4428.283621  22937.669269     24.601195
PR15   -948.624326 -18915.806328  17107.175177     89.561191
PR16 -11871.657734 -22561.408677   1293.827739     13.963272
PR17  22643.746780  -4192.623747 -11003.739813    624.869068
PR18   8905.221945  -9459.916500 -21929.872322     78.619375
PR19  -7616.540675 -10376.290752 -22027.492069   -230.563695
PR20 -23929.548751  -5074.699674  -7312.268217    -91.892004
PR21 -21747.798716   4687.487898  12455.341004     -3.128721
PR22  -8358.505238   9750.823640  22064.841287     81.137905
PR24  24278.651158   4152.039846   6661.176182    165.398399
PR25 -22885.474500   3210.103551  10783.692982     64.465344
EOF
